#dP2020  6 28  0  0  0.00000000      96 __u+U ITR00 FIT  IAC
## 2112      0.00000000   900.00000000 59028 0.0000000000000
+  114   C02C03C04C05C06C07C08C09C10C11C12C13C14C16C19C20C21
+        C22C23C24C25C26C27C28C29C30C32C33C34C35C36C37C45E01
+        E02E03E04E05E07E08E09E11E12E13E14E15E18E19E21E24E25
+        E26E27E30E31E33E36G01G02G03G04G05G06G07G08G09G10G11
+        G12G13G14G15G16G17G18G19G20G21G22G24G25G26G27G28G29
+        G30G31G32J01J02J03J07R01R02R03R04R05R07R08R09R11R12
+        R13R14R15R16R17R18R19R20R21R23R24R26  0  0  0  0  0
++        13 13 13 13  8  9  8  8  8  8  8  8  8  8  8  8  8
++         8  7  8  7  8  8  8 10  8  8  8  8  8  8  8  0  4
++         4  5  5  5  4  4  5  5  4  4  4  5  5  4  4  5  5
++         4  4  4  5  5  5  3  3  7  3  3  3  3  3  3  3  4
++         3  3  4  3  4  3  3  3  3  3  3  3  3  4  3  4  3
++         3  3  3  8  8  9 15  6  5  5  5  5  6  6  6  5  5
++         6  5  5  6  5  6  6  6  5  6  6  8  0  0  0  0  0
%c M  cc GPS ccc cccc cccc cccc cccc ccccc ccccc ccccc ccccc
%c cc cc ccc ccc cccc cccc cccc cccc ccccc ccccc ccccc ccccc
%f  0.0000000  0.000000000  0.00000000000  0.000000000000000
%f  0.0000000  0.000000000  0.00000000000  0.000000000000000
%i    0    0    0    0      0      0      0      0         0
%i    0    0    0    0      0      0      0      0         0
/* INFORMATION & ANALYSIS CENTER (IAC)            RAPID DATA
/* S/V CLOCKS ARE ALIGNED TO GNSS TIME                      
/* G:C1WC2W R:C1PC2P E:C1XC5X C:C2IC6I J:C1CC2S             
/* PCV:IGS14_2101 OL/AL:FES2004  NONE     YN ORB:CoN CLK:CoN
*  2020 06 28  7 30  0.00000000
PC02   4393.200091  41933.393076    717.026043    252.554213
PC03 -14795.223472  39453.502514   1090.854801    845.505376
PC04 -39604.214388  14422.827184    390.759503   -139.896817
PC05  21842.180801  36059.122034    405.825945   -535.183763
PC06 -24724.406622  28040.172044 -19514.979326    765.584542
PC07 -11712.015873  37018.955954 -15608.339910     10.203017
PC08  -8222.106427  20214.023596  36186.851961   -339.419000
PC09  -9249.932413  27785.502720 -30202.081133    639.909968
PC10  -1027.002642  41803.470024  -2681.634126   -250.756682
PC11   -559.923512  15648.087373  23145.870208   -456.484989
PC12 -19861.170369  13817.555292  13907.382702    414.444413
PC13   6543.082299  27657.555764  31323.701277    514.198495
PC14  -2206.170306  26633.894224  -7889.612758    592.401857
PC16 -21833.262592  28571.576781 -22091.471593   -608.787605
PC19  -4724.987119 -22564.298906  15770.411008    458.038259
PC20   8083.523985 -26729.603048   -175.940427   -845.702332
PC21 -16605.099179  15005.097580  16673.713780   -585.535449
PC22 -15059.443905  -5255.465010  22907.327811   -779.029385
PC23  22260.572712  12889.001988  10820.853522   -848.291317
PC24  -1870.366907  19193.848217 -20175.892288   -779.753545
PC25  15429.729344  22396.686450  -6286.508856   -667.217205
PC26 -16358.255968   5460.453457 -21935.643655    734.593046
PC27  25713.046715  -9351.661972  -5462.163615    355.077805
PC28  25017.673558   3116.636445  11972.048561   -206.516782
PC29 -10196.075675 -13342.959962 -22298.251884 999999.999999
PC30  11086.145734 -16686.747080 -19424.319704    338.514073
PC32  16481.761555 -15200.868970 -16605.289152   -876.515651
PC33   4797.531999  22562.610397 -15678.235115   -806.109064
PC34 -10655.347592  16729.441308  19628.920791   -852.498176
PC35 -25043.678397  -2423.347977 -12111.207221   -775.811618
PC36 -14716.609735 -22803.965546   6544.368186   -855.581438
PC37  16926.571212  -4419.349138  21766.404178   -858.507315
PC45      0.000000      0.000000      0.000000 999999.999999
PE01 -13453.701348 -25193.123592  -7783.560278   -886.979838
PE02  13502.211725  25140.127606   7875.876624    143.517127
PE03   8527.794619  15593.428614 -23661.972733   -314.687253
PE04 -21508.559446   2343.702357  20210.077857   -554.856382
PE05  -9637.027011  24629.741599 -13277.813515   -367.856479
PE07  22011.200766 -19222.113247  -4747.666627   -401.631313
PE08  21495.296737  -2810.171628 -20154.262153   6157.445857
PE09 -21836.106891  19409.653289   4703.599296   6014.182654
PE11 -21850.337357   7824.027875  18370.910416   3746.861694
PE12 -29089.372318  -5466.127620    842.395769   5733.244168
PE13  21972.199630  -7725.695056 -18264.235046    401.923980
PE14   -894.632006 -22071.941760 -23958.751964  -1065.175980
PE15  29116.694373   5210.262362  -1052.754254    861.941893
PE18   -373.266751  16056.858212  16961.706742  -1167.036269
PE19  -6562.665909 -17072.345143  23284.495944     14.172490
PE21  -1319.692761 -27557.618541  10733.093923   -607.065837
PE24 -12147.106164  13550.867530 -23357.177441   5379.333957
PE25   1224.551488  27508.668926 -10846.825706   -512.815642
PE26   1541.507734 -16369.926890 -24614.617870   3022.166910
PE27  11879.381982 -13874.011377  23297.579758    189.033173
PE30  18043.976205   8409.266688  21900.545091   3790.717368
PE31 -18028.133954  -7895.975236 -22102.878724   -473.029336
PE33 -19163.652394 -15087.299464 -16777.054182   -465.570423
PE36  -1936.385426  16121.864910  24748.243701    541.189106
PG01 -21400.339245 -15203.024789  -5328.143923     17.911835
PG02   3036.993618  17108.540873  20742.465763   -479.003767
PG03 -12069.335616 -17229.426012  16212.996802   -222.942132
PG04 -17207.027876  -5574.688338  19472.937691   -108.039600
PG05   1761.109026  26383.154874    565.594685    -15.540276
PG06 -10041.893124  11333.402103  21874.817306   -295.393441
PG07 -24007.875090  -3864.681435 -10931.354527   -314.730262
PG08  -6855.844498 -13441.020858 -21835.631162    -39.102823
PG09 -23104.926715   5177.987582  12002.081735   -244.200622
PG10  11924.987227 -14804.120314 -18359.839372   -384.175783
PG11 -15655.489200 -13319.947328 -17142.557032   -236.321400
PG12  10584.198783  18014.938470  16252.268486    100.677788
PG13  -2497.051083  16836.081724 -20482.169087     22.077041
PG14  15811.344113 -17879.579257  11804.268134     -2.661696
PG15   9389.485975  13060.520102 -21443.767996   -221.235657
PG16   -524.615545 -26230.050848  -2297.904853   -175.943364
PG17 -21511.600611  15152.526346   3853.173034    287.609408
PG18  23641.071581   3728.510955 -11559.291730    232.253518
PG19 -17655.353040  16723.153646  10334.575823   -139.277442
PG20  15606.893607  -2587.559485 -21413.876833    527.420638
PG21  16444.591231  -7361.018624 -18687.541471     17.087479
PG22 -10476.492110 -22523.038642   9815.238164   -775.494694
PG24  20895.668308  15074.089725  -7395.511206    -14.929240
PG25  14677.792002   7474.544344  20654.496701     17.509779
PG26   5793.072161 -23438.405008  10776.460809    233.526280
PG27   4610.644049 -18130.029183 -18862.361039   -332.007463
PG28 -12094.353688  16007.133760 -16900.122681    704.653410
PG29  21670.685970   -353.552590  15326.596772   -138.001415
PG30 -18245.297996   5427.464998 -18560.807538   -250.914303
PG31   9131.268675 -12366.223420  21637.930861    -52.043015
PG32  20273.271702 -16602.496668   3904.828371    307.856046
PJ01 -31228.753191  26128.202551  15836.769750   -280.579172
PJ02 -20052.988296  21774.570471 -25529.971184     -0.806877
PJ03 -29355.144278  28491.509858  15660.066052     -4.622891
PJ07 -25393.165104  33654.396605    -12.126738     -0.006096
PR01   2354.763579 -20710.004114  14723.228215     63.737520
PR02 -10558.800887  -3323.023685  23027.663390    433.703808
PR03 -15302.328179  13719.588738  15186.071129     17.562245
PR04 -11279.360231  22848.897119  -1156.327279     54.349350
PR05  -1043.942751  19087.459921 -16884.791204     53.118836
PR07  15269.677564 -14187.672151 -14636.192355    -37.969251
PR08  11231.455413 -22861.188847   1306.184447    -53.114641
PR09  16491.542325  11165.801092  15909.177266    140.463157
PR11   -431.346314 -17403.123731  18683.797404    -28.641845
PR12 -11587.957517 -22224.082490   4727.040654    142.689245
PR13 -16719.664288 -14513.467471 -12688.418941    -40.533903
PR14 -11765.616248   1700.485864 -22556.568597     52.760995
PR15   -177.904160  16738.032039 -19223.549776    106.915043
PR16  12368.147956  22011.241649  -4070.558688     -4.391210
PR17 -24317.113638   3942.815653   6545.085682    336.735292
PR18 -12727.037875   9469.159223  20001.482457     40.386557
PR19   4997.280261  10130.613414  22864.408901    -99.919626
PR20  22295.294226   4822.860681  11372.631695   -415.371313
PR21  24018.902301  -4279.950479  -7498.659773   -134.410997
PR23 -12443.846807  -8785.932535 -20474.317168    315.082944
PR24 -22738.352557  -4565.885862 -10595.536685      4.282730
PR26  19318.282688   6294.477943  15446.733056   -391.585076
EOF
